CCSDS_OMM_VERS,COMMENT,CREATION_DATE,ORIGINATOR,OBJECT_NAME,OBJECT_ID,CENTER_NAME,REF_FRAME,TIME_SYSTEM,MEAN_ELEMENT_THEORY,EPOCH,MEAN_MOTION,ECCENTRICITY,INCLINATION,RA_OF_ASC_NODE,ARG_OF_PERICENTER,MEAN_ANOMALY,EPHEMERIS_TYPE,CLASSIFICATION_TYPE,NORAD_CAT_ID,ELEMENT_SET_NO,REV_AT_EPOCH,BSTAR,MEAN_MOTION_DOT,MEAN_MOTION_DDOT,SEMIMAJOR_AXIS,PERIOD,APOAPSIS,PERIAPSIS,OBJECT_TYPE,RCS_SIZE,COUNTRY_CODE,LAUNCH_DATE,SITE,DECAY_DATE,FILE,GP_ID,TLE_LINE0,TLE_LINE1,TLE_LINE2,NORAD_KEY,JCAT,DeepCat,Satcat,Piece,Active,Type,Name,LDate,Parent,Owner,State,SDate,ExpandedStatus,DDate,ODate,Period,Perigee,PF,Apogee,AF,Inc,IF,OpOrbit,SATCAT_KEY
3.0,GENERATED VIA SPACE-TRACK.ORG API,2026-05-06T15:06:46,18 SPCS,CHINASAT 32 (BEIDOU 1),2000-069A,EARTH,TEME,UTC,SGP4,2026-05-06T11:13:41.236896,0.98905737,0.0010986,12.2802,32.6093,346.3067,75.5805,0,U,26599,999,9277,0.00000000000000,0.00000061,0.0000000000000,42552.086,1455.932,36220.698,36127.203,PAYLOAD,LARGE,PRC,2000-10-30,XSC,,5177721,322311261,0 CHINASAT 32 (BEIDOU 1),1 26599U 00069A   26126.46783839  .00000061  00000-0  00000+0 0  9997,2 26599  12.2802  32.6093 0010986 346.3067  75.5805  0.98905737 92777,26599,S26599,-,26599,2000-069A,P,P      G,Beidou DJW,2000 Oct 30,S26600,CNSA,CN,2000 Oct 30 1625?,In Earth orbit,-,2026 May  4 ,    1455.935 ,   36126, ,   36221, , 12.28 , ,GEO/ID,26599
3.0,GENERATED VIA SPACE-TRACK.ORG API,2026-05-06T14:56:52,18 SPCS,SOLIDARIDAD 2,1994-065A,EARTH,TEME,UTC,SGP4,2026-05-06T02:06:38.500704,0.98866683,0.0004977,12.2821,31.597,346.845,204.3762,0,U,23313,999,11492,0.00000000000000,-0.00000232,0.0000000000000,42563.291,1456.507,36206.34,36163.972,PAYLOAD,LARGE,MEX,1994-10-08,FRGUI,,5177503,322305654,0 SOLIDARIDAD 2,1 23313U 94065A   26126.08794561 -.00000232  00000-0  00000+0 0  9990,2 23313  12.2821  31.5970 0004977 346.8450 204.3762  0.98866683114927,23313,S23313,-,23313,1994-065A,P,P,Satmex 4,1994 Oct  8,S23315,EUTAM,MX,1994 Oct  8 0129,In Earth orbit,-,2026 May  5 ,    1456.503 ,   36163, ,   36206, , 12.28 , ,GEO/ID,23313
3.0,GENERATED VIA SPACE-TRACK.ORG API,2026-05-06T14:56:52,18 SPCS,COSMOS 2054,1989-101A,EARTH,TEME,UTC,SGP4,2026-05-06T07:10:38.638848,1.0026029,8.7e-05,12.2842,334.5431,224.1083,315.8616,0,U,20391,999,13344,0.00000000000000,0.00000049,0.0000000000000,42167.955,1436.262,35793.488,35786.151,PAYLOAD,LARGE,CIS,1989-12-27,TTMTR,,5177412,322303017,0 COSMOS 2054,1 20391U 89101A   26126.29905832  .00000049  00000-0  00000+0 0  9991,2 20391  12.2842 334.5431 0000870 224.1083 315.8616  1.00260290133449,20391,S20391,-,20391,1989-101A,P,P,Kosmos-2054,1989 Dec 27,S20394,VVKOV,SU,1989 Dec 27 1753?,In Earth orbit,-,2026 May  4 ,    1436.269 ,   35786, ,   35793, , 12.29 , ,GEO/I,20391
3.0,GENERATED VIA SPACE-TRACK.ORG API,2026-05-06T14:56:52,18 SPCS,OPTUS B3,1994-055A,EARTH,TEME,UTC,SGP4,2026-05-06T09:00:34.056288,0.98697131,0.0007117,12.2958,30.6516,11.22,168.6208,0,U,23227,999,11550,0.00000000000000,-0.00000036,0.0000000000000,42612.023,1459.009,36264.215,36203.561,PAYLOAD,LARGE,AUS,1994-08-27,XSC,,5177499,322305604,0 OPTUS B3,1 23227U 94055A   26126.37539417 -.00000036  00000-0  00000+0 0  9994,2 23227  12.2958  30.6516 0007117  11.2200 168.6208  0.98697131115505,23227,S23227,-,23227,1994-055A,P,P,Optus B3,1994 Aug 27,S23229,OPTS,AU,1994 Aug 28 0113,In Earth orbit,-,2026 May  4 ,    1459.020 ,   36203, ,   36264, , 12.29 , ,GEO/ID,23227
3.0,GENERATED VIA SPACE-TRACK.ORG API,2026-05-06T10:08:52,18 SPCS,GORIZONT 17,1989-004A,EARTH,TEME,UTC,SGP4,2026-05-06T03:08:47.575680,0.99063997,0.00187579,12.3133,333.6061,168.8608,186.4423,0,U,19765,999,13515,0.00000000000000,0.00000068,0.0000000000000,42506.754,1453.606,36208.353,36048.885,PAYLOAD,LARGE,CIS,1989-01-26,TTMTR,,5176958,322263893,0 GORIZONT 17,1 19765U 89004A   26126.13110620  .00000068  00000-0  00000-0 0  9994,2 19765  12.3133 333.6061 0018758 168.8608 186.4423  0.99063997135156,19765,S19765,-,19765,1989-004A,P,P,Gorizont,1989 Jan 26,S19776,KS,SU,1989 Jan 26 1553?,In Earth orbit,-,2026 May  5 ,    1453.609 ,   36048, ,   36208, , 12.31 , ,GEO/ID,19765
3.0,GENERATED VIA SPACE-TRACK.ORG API,2026-05-06T14:56:52,18 SPCS,BS-2B (YURI 2B),1986-016A,EARTH,TEME,UTC,SGP4,2026-05-06T07:11:37.376160,0.99293141,0.0011841,12.317,332.5863,226.8522,322.1123,0,U,16597,999,12770,0.00000000000000,-0.00000075,0.0000000000000,42441.332,1450.251,36113.452,36012.943,PAYLOAD,LARGE,JPN,1986-02-12,TNSTA,,5177379,322302127,0 BS-2B (YURI 2B),1 16597U 86016A   26126.29973815 -.00000075  00000-0  00000+0 0  9992,2 16597  12.3170 332.5863 0011841 226.8522 322.1123  0.99293141127705,16597,S16597,-,16597,1986-016A,P,P,Yuri 2B,1986 Feb 12,S16600,JAXA,J,1986 Feb 12 0822,In Earth orbit,-,2026 May  5 ,    1450.257 ,   36013, ,   36113, , 12.32 , ,GEO/ID,16597
3.0,GENERATED VIA SPACE-TRACK.ORG API,2026-05-06T14:56:52,18 SPCS,BS-2B (YURI 2B),1986-016A,EARTH,TEME,UTC,SGP4,2026-05-06T07:11:37.376160,0.99293141,0.0011841,12.317,332.5863,226.8522,322.1123,0,U,16597,999,12770,0.00000000000000,-0.00000075,0.0000000000000,42441.332,1450.251,36113.452,36012.943,PAYLOAD,LARGE,JPN,1986-02-12,TNSTA,,5177379,322302127,0 BS-2B (YURI 2B),1 16597U 86016A   26126.29973815 -.00000075  00000-0  00000+0 0  9992,2 16597  12.3170 332.5863 0011841 226.8522 322.1123  0.99293141127705,16597,A04268,-,16597,1986-016,C,C AM,Star 27,1986 Feb 12,S16597,JAXA,J,1986 Feb 15 0530,Attached to S16597 Yuri 2B,-,-,-,-,-,-,-,-,-,-,16597
3.0,GENERATED VIA SPACE-TRACK.ORG API,2026-05-06T10:08:52,18 SPCS,UFO 3 (USA 104),1994-035A,EARTH,TEME,UTC,SGP4,2026-05-05T21:41:48.072768,1.00268216,0.00031946,12.3499,5.9698,311.6014,222.3904,0,U,23132,999,13127,0.00000000000000,-0.00000092,0.0000000000000,42165.732,1436.148,35801.068,35774.127,PAYLOAD,LARGE,US,1994-06-24,AFETR,,5176958,322264508,0 UFO 3 (USA 104),1 23132U 94035A   26125.90402862 -.00000092  00000-0  00000-0 0  9991,2 23132  12.3499   5.9698 0003195 311.6014 222.3904  1.00268216131274,23132,S23132,-,23132,1994-035A,P,P,UHF F/O F3,1994 Jun 24,S23133,HCIE,US,1994 Jun 24 1418,In Earth orbit,-,2026 May  4 ,    1436.149 ,   35773, ,   35801, , 12.35 , ,GEO/I,23132
3.0,GENERATED VIA SPACE-TRACK.ORG API,2026-05-06T14:56:52,18 SPCS,RADUGA 25,1990-016A,EARTH,TEME,UTC,SGP4,2026-05-06T11:07:44.169024,1.00192591,0.0004266,12.3654,334.9903,213.6034,139.3971,0,U,20499,999,13248,0.00000000000000,-0.00000288,0.0000000000000,42186.948,1437.232,35826.809,35790.816,PAYLOAD,LARGE,CIS,1990-02-15,TTMTR,,5177415,322303558,0 RADUGA 25,1 20499U 90016A   26126.46370566 -.00000288  00000-0  00000+0 0  9992,2 20499  12.3654 334.9903 0004266 213.6034 139.3971  1.00192591132484,20499,S20499,-,20499,1990-016A,P,P,Raduga,1990 Feb 15,S20502,VVKOV,SU,1990 Feb 15 1430?,In Earth orbit,-,2026 May  4 ,    1437.221 ,   35790, ,   35826, , 12.37 , ,GEO/ID,20499
3.0,GENERATED VIA SPACE-TRACK.ORG API,2026-05-06T14:56:52,18 SPCS,AFRICASAT 1 (MEASAT 1),1996-002B,EARTH,TEME,UTC,SGP4,2026-05-06T10:08:53.698272,0.990617,0.000525,12.3687,29.6288,325.9939,240.7822,0,U,23765,999,11043,0.00000000000000,0.00000043,0.0000000000000,42507.411,1453.639,36151.593,36106.96,PAYLOAD,LARGE,MALA,1996-01-12,FRGUI,,5177519,322305354,0 AFRICASAT 1 (MEASAT 1),1 23765U 96002B   26126.42284373  .00000043  00000-0  00000+0 0  9996,2 23765  12.3687  29.6288 0005250 325.9939 240.7822  0.99061700110435,23765,S23765,-,23765,1996-002B,P,P,Africasat 1,1996 Jan 12,S23767,MEAS,MY,1996 Jan 12 2336,In Earth orbit,-,2026 May  4 ,    1453.650 ,   36107, ,   36151, , 12.37 , ,GEO/ID,23765
3.0,GENERATED VIA SPACE-TRACK.ORG API,2026-05-06T14:56:52,18 SPCS,AFRICASAT 1 (MEASAT 1),1996-002B,EARTH,TEME,UTC,SGP4,2026-05-06T10:08:53.698272,0.990617,0.000525,12.3687,29.6288,325.9939,240.7822,0,U,23765,999,11043,0.00000000000000,0.00000043,0.0000000000000,42507.411,1453.639,36151.593,36106.96,PAYLOAD,LARGE,MALA,1996-01-12,FRGUI,,5177519,322305354,0 AFRICASAT 1 (MEASAT 1),1 23765U 96002B   26126.42284373  .00000043  00000-0  00000+0 0  9996,2 23765  12.3687  29.6288 0005250 325.9939 240.7822  0.99061700110435,23765,A05741,-,23765,1996-002,C,C AM,Star 30C?,1996 Jan 12,S23765,MEAS,MY,1996 Jan 16 0605?,Attached to S23765 Measat 1,-,-,-,-,-,-,-,-,-,-,23765
3.0,GENERATED VIA SPACE-TRACK.ORG API,2026-05-06T02:32:52,18 SPCS,FENGYUN 2C,2004-042A,EARTH,TEME,UTC,SGP4,2026-05-05T19:24:47.511936,0.98081518,0.00039903,12.3689,31.5024,351.5718,203.3714,0,U,28451,999,4075,0.00000000000000,-0.00000007,0.0000000000000,42790.142,1468.167,36429.081,36394.932,PAYLOAD,LARGE,PRC,2004-10-19,XSC,,5176277,322217757,0 FENGYUN 2C,1 28451U 04042A   26125.80888324 -.00000007  00000-0  00000-0 0  9995,2 28451  12.3689  31.5024 0003990 351.5718 203.3714  0.98081518 40753,28451,S28451,-,28451,2004-042A,P,P,Feng Yun 2C,2004 Oct 19,S28452,NSMC,CN,2004 Oct 19 0144,In Earth orbit,-,2026 May  4 ,    1468.166 ,   36394, ,   36429, , 12.37 , ,GEO/ID,28451
3.0,GENERATED VIA SPACE-TRACK.ORG API,2026-05-06T02:32:52,18 SPCS,MSAT M1,1996-022A,EARTH,TEME,UTC,SGP4,2026-05-05T20:45:40.728672,0.98643933,0.00168966,12.3816,28.684,207.2398,7.4592,0,U,23846,999,10966,0.00000000000000,0.00000036,0.0000000000000,42627.342,1459.796,36321.233,36177.181,PAYLOAD,LARGE,CA,1996-04-20,FRGUI,,5176277,322215956,0 MSAT M1,1 23846U 96022A   26125.86505473  .00000036  00000-0  00000-0 0  9995,2 23846  12.3816  28.6840 0016897 207.2398   7.4592  0.98643933109660,23846,S23846,-,23846,1996-022A,P,P,M-SAT 1,1996 Apr 20,S23847,SKYTCA,CA,1996 Apr 20 2257,In Earth orbit,-,2026 May  4 ,    1459.797 ,   36177, ,   36321, , 12.38 , ,GEO/ID,23846
